GLOBALSTAR M024 [-]     
1 25883U 99043A   23343.84730670 -.00000080  00000+0 -52643-3 0  9993
2 25883  51.9986 193.6472 0000222 307.6631 187.6121 11.10158666 53188
GLOBALSTAR M027 [-]     
1 25884U 99043B   23344.20108047 -.00000011  00000+0  19959-2 0  9997
2 25884  52.0209 255.1127 0020792 173.2672 186.8403 11.04366024 79922
GLOBALSTAR M054 [-]     
1 25885U 99043C   23344.59633376 -.00000085  00000+0 -34549-3 0  9993
2 25885  52.0125 114.5922 0003457 297.9959 147.2400 11.39202810 55845
GLOBALSTAR M053 [-]     
1 25886U 99043D   23344.36684255 -.00000057  00000+0  33257-3 0  9994
2 25886  52.0013  31.4612 0003505 214.4968 276.3060 11.27652442 56858
GLOBALSTAR M050 [-]     
1 25908U 99049B   23344.01727399  .00000040  00000+0  14442-2 0  9999
2 25908  51.9964 200.7385 0009473  12.9458 139.3709 12.07424425 81122
GLOBALSTAR M033 [-]     
1 25909U 99049C   23344.57162724 -.00000048  00000+0  42336-3 0  9999
2 25909  51.9906 109.3543 0011489 207.6086 152.4152 12.20260340468035
GLOBALSTAR M055 [-]     
1 25910U 99049D   23344.61681765 -.00000072  00000+0  19327-3 0  9998
2 25910  51.9992 146.9620 0007946  66.0586 294.1097 12.29392168100072
